[{"OBJECT_NAME":"STARLINK-32823","OBJECT_ID":"2025-018T","EPOCH":"2026-03-09T21:33:44.148096","MEAN_MOTION":15.30202876,"ECCENTRICITY":0.00015132,"INCLINATION":53.1587,"RA_OF_ASC_NODE":308.391,"ARG_OF_PERICENTER":139.7649,"MEAN_ANOMALY":220.3464,"EPHEMERIS_TYPE":0,"CLASSIFICATION_TYPE":"U","NORAD_CAT_ID":62823,"ELEMENT_SET_NO":999,"REV_AT_EPOCH":6321,"BSTAR":0.00050086017,"MEAN_MOTION_DOT":0.00014505,"MEAN_MOTION_DDOT":0},{"OBJECT_NAME":"COSMOS 1975","OBJECT_ID":"1988-093A","EPOCH":"2026-03-09T14:15:08.474112","MEAN_MOTION":15.28069249,"ECCENTRICITY":0.0012117,"INCLINATION":82.5181,"RA_OF_ASC_NODE":117.7814,"ARG_OF_PERICENTER":163.8427,"MEAN_ANOMALY":196.3201,"EPHEMERIS_TYPE":0,"CLASSIFICATION_TYPE":"U","NORAD_CAT_ID":19573,"ELEMENT_SET_NO":999,"REV_AT_EPOCH":1939,"BSTAR":0.0002787,"MEAN_MOTION_DOT":7.676e-5,"MEAN_MOTION_DDOT":0}]
